ONEWEB-0158             
1 48054U 21025N   26167.13800808 -.00000283  00000+0 -80876-3 0  9997
2 48054  87.8960 320.4256 0001590  94.9228 265.2082 13.13471208253490
ONEWEB-0157             
1 48055U 21025P   26167.16340651 -.00000045  00000+0 -15735-3 0  9994
2 48055  87.8957 320.4266 0002057 106.6055 253.5300 13.13470548253439
ONEWEB-0162             
1 48056U 21025Q   26167.13956147 -.00000349  00000+0 -99127-3 0  9999
2 48056  87.8956 320.4319 0001977  94.0042 266.1313 13.13469416253407
ONEWEB-0155             
1 48057U 21025R   26167.14646600 -.00000371  00000+0 -10508-2 0  9991
2 48057  87.8957 320.4268 0001820 102.0663 258.0670 13.13469574253544
ONEWEB-0149             
1 48058U 21025S   26167.32083777  .00000132  00000+0  32559-3 0  9996
2 48058  87.8961 320.3958 0002013  93.4996 266.6364 13.13470615253376
ONEWEB-0148             
1 48059U 21025T   26167.13123420 -.00000197  00000+0 -57456-3 0  9992
2 48059  87.8953 320.4403 0002422  93.1511 266.9896 13.13469603253477
ONEWEB-0160             
1 48060U 21025U   26167.14815526 -.00000303  00000+0 -86523-3 0  9996
2 48060  87.8952 320.4330 0001434  74.7059 285.4229 13.13471065253427
ONEWEB-0163             
1 48061U 21025V   26167.13291815 -.00000196  00000+0 -57238-3 0  9996
2 48061  87.8960 320.4303 0001974 104.0774 256.0575 13.13470374253540
ONEWEB-0159             
1 48062U 21025W   26167.12445911  .00000030  00000+0  48278-4 0  9994
2 48062  87.8963 320.4257 0001917 103.9745 256.1597 13.13470488253467
ONEWEB-0164             
1 48063U 21025X   26167.18201799  .00000459  00000+0  12226-2 0  9992
2 48063  87.8963 320.4207 0001734  96.0764 264.0563 13.13470993253454
ONEWEB-0167             
1 48064U 21025Y   26167.13375985 -.00000187  00000+0 -54817-3 0  9990
2 48064  87.8952 320.4400 0001675 118.0599 242.0700 13.13468293253430
ONEWEB-0166             
1 48065U 21025Z   26166.92807851 -.00000358  00000+0 -10153-2 0  9993
2 48065  87.8962 320.4524 0002022  96.4245 263.7114 13.13470121253480
ONEWEB-0151             
1 48066U 21025AA  26167.23448835 -.00000145  00000+0 -43157-3 0  9997
2 48066  87.8953 320.4082 0001747 100.3428 259.7898 13.13470872253466
ONEWEB-0170             
1 48067U 21025AB  26167.31913560  .00000079  00000+0  18178-3 0  9998
2 48067  87.8956 320.3934 0001368  95.7604 264.3681 13.13470738253437
ONEWEB-0168             
1 48068U 21025AC  26167.15154292 -.00000363  00000+0 -10289-2 0  9992
2 48068  87.8962 320.4267 0001977 100.8834 259.2518 13.13469604253425
ONEWEB-0173             
1 48069U 21025AD  26167.14307920 -.00000334  00000+0 -94827-3 0  9999
2 48069  87.8954 320.4298 0001930 108.0581 252.0759 13.13470055253665
ONEWEB-0171             
1 48070U 21025AE  26167.18032830  .00000195  00000+0  49926-3 0  9993
2 48070  87.8952 320.4307 0001738  98.1885 261.9442 13.13469756253482
ONEWEB-0172             
1 48071U 21025AF  26167.16000064 -.00000118  00000+0 -35696-3 0  9992
2 48071  87.8958 320.4246 0001793 102.4935 257.6394 13.13471564254374
ONEWEB-0174             
1 48072U 21025AG  26167.14139228 -.00000325  00000+0 -92360-3 0  9997
2 48072  87.8956 320.4274 0001996  96.7285 263.4071 13.13470731253698
ONEWEB-0175             
1 48073U 21025AH  26167.32421907  .00000201  00000+0  51456-3 0  9998
2 48073  87.8963 320.3755 0001516 102.5266 257.6033 13.13471254253372
ONEWEB-0177             
1 48074U 21025AJ  26167.18371018  .00000244  00000+0  63245-3 0  9996
2 48074  87.8959 320.4219 0002035 100.3121 259.8237 13.13470240253540
ONEWEB-0178             
1 48075U 21025AK  26167.12628409 -.00000043  00000+0 -15295-3 0  9991
2 48075  87.8945 320.4460 0001716 104.7707 255.3612 13.13468122253585
ONEWEB-0108             
1 48076U 21025AL  26167.16170298 -.00000138  00000+0 -41348-3 0  9997
2 48076  87.8962 320.4177 0001913  90.2568 269.8781 13.13470266253515
ONEWEB-0169             
1 48077U 21025AM  26167.11769115  .00000208  00000+0  53590-3 0  9993
2 48077  87.8956 320.4344 0001942  96.2534 263.8817 13.13469596252164
ONEWEB-0176             
1 48210U 21031A   26167.03722604  .00000083  00000+0  18865-3 0  9999
2 48210  87.8965 289.9284 0001877 103.5281 256.6058 13.14503277248161
ONEWEB-0184             
1 48211U 21031B   26167.31473490  .00000157  00000+0  38861-3 0  9997
2 48211  87.8970 289.8738 0001512 125.0073 235.1199 13.14502981248175
ONEWEB-0179             
1 48212U 21031C   26167.32279133  .00000224  00000+0  68237-4 0  9993
2 48212  87.8990 287.1804 0218704 260.0533  97.5914 14.25522720248921
ONEWEB-0180             
1 48213U 21031D   26167.31791000  .00000172  00000+0  42927-3 0  9994
2 48213  87.8965 289.8695 0002178 111.4156 248.7206 13.14503124248105
ONEWEB-0218             
1 48214U 21031E   26167.03564089  .00000047  00000+0  92899-4 0  9994
2 48214  87.8974 289.9247 0001800 128.2251 231.9041 13.14502144248228
ONEWEB-0209             
1 48215U 21031F   26167.25288347  .00000295  00000+0  75995-3 0  9991
2 48215  87.8963 289.8986 0002117 103.9913 256.1452 13.14501646248257
