OBJECT_NAME,OBJECT_ID,EPOCH,MEAN_MOTION,ECCENTRICITY,INCLINATION,RA_OF_ASC_NODE,ARG_OF_PERICENTER,MEAN_ANOMALY,EPHEMERIS_TYPE,CLASSIFICATION_TYPE,NORAD_CAT_ID,ELEMENT_SET_NO,REV_AT_EPOCH,BSTAR,MEAN_MOTION_DOT,MEAN_MOTION_DDOT
ONEWEB-0158,2021-025N,2026-06-16T03:18:43.898112,13.13471208,.000159,87.8960,320.4256,94.9228,265.2082,0,U,48054,999,25349,-.80875541E-3,-.283E-5,0
ONEWEB-0157,2021-025P,2026-06-16T03:55:18.322464,13.13470548,.00020575,87.8957,320.4266,106.6055,253.5300,0,U,48055,999,25343,-.1573491E-3,-.45E-6,0
ONEWEB-0162,2021-025Q,2026-06-16T03:20:58.111008,13.13469416,.00019778,87.8956,320.4319,94.0042,266.1313,0,U,48056,999,25340,-.9912665E-3,-.349E-5,0
ONEWEB-0155,2021-025R,2026-06-16T03:30:54.662400,13.13469574,.00018204,87.8957,320.4268,102.0663,258.0670,0,U,48057,999,25354,-.10508097E-2,-.371E-5,0
ONEWEB-0149,2021-025S,2026-06-16T07:42:00.383328,13.13470615,.00020134,87.8961,320.3958,93.4996,266.6364,0,U,48058,999,25337,.32558522E-3,.132E-5,0
ONEWEB-0148,2021-025T,2026-06-16T03:08:58.634880,13.13469603,.00024224,87.8953,320.4403,93.1511,266.9896,0,U,48059,999,25347,-.57456492E-3,-.197E-5,0
ONEWEB-0160,2021-025U,2026-06-16T03:33:20.614464,13.13471065,.00014348,87.8952,320.4330,74.7059,285.4229,0,U,48060,999,25342,-.86523096E-3,-.303E-5,0
ONEWEB-0163,2021-025V,2026-06-16T03:11:24.128160,13.13470374,.00019743,87.8960,320.4303,104.0774,256.0575,0,U,48061,999,25354,-.57237576E-3,-.196E-5,0
ONEWEB-0159,2021-025W,2026-06-16T02:59:13.267104,13.13470488,.00019179,87.8963,320.4257,103.9745,256.1597,0,U,48062,999,25346,.48278308E-4,.3E-6,0
ONEWEB-0164,2021-025X,2026-06-16T04:22:06.354336,13.13470993,.00017341,87.8963,320.4207,96.0764,264.0563,0,U,48063,999,25345,.12226493E-2,.459E-5,0
ONEWEB-0167,2021-025Y,2026-06-16T03:12:36.851040,13.13468293,.00016756,87.8952,320.4400,118.0599,242.0700,0,U,48064,999,25343,-.54817427E-3,-.187E-5,0
ONEWEB-0166,2021-025Z,2026-06-15T22:16:25.983264,13.13470121,.0002022,87.8962,320.4524,96.4245,263.7114,0,U,48065,999,25348,-.10153E-2,-.358E-5,0
ONEWEB-0151,2021-025AA,2026-06-16T05:37:39.793440,13.13470872,.00017478,87.8953,320.4082,100.3428,259.7898,0,U,48066,999,25346,-.43157212E-3,-.145E-5,0
ONEWEB-0170,2021-025AB,2026-06-16T07:39:33.315840,13.13470738,.00013682,87.8956,320.3934,95.7604,264.3681,0,U,48067,999,25343,.18177809E-3,.79E-6,0
ONEWEB-0168,2021-025AC,2026-06-16T03:38:13.308288,13.13469604,.00019779,87.8962,320.4267,100.8834,259.2518,0,U,48068,999,25342,-.10289375E-2,-.363E-5,0
ONEWEB-0173,2021-025AD,2026-06-16T03:26:02.042880,13.13470055,.00019308,87.8954,320.4298,108.0581,252.0759,0,U,48069,999,25366,-.94827153E-3,-.334E-5,0
ONEWEB-0171,2021-025AE,2026-06-16T04:19:40.365120,13.13469756,.00017389,87.8952,320.4307,98.1885,261.9442,0,U,48070,999,25348,.49926117E-3,.195E-5,0
ONEWEB-0172,2021-025AF,2026-06-16T03:50:24.055296,13.13471564,.00017931,87.8958,320.4246,102.4935,257.6394,0,U,48071,999,25437,-.35695661E-3,-.118E-5,0
ONEWEB-0174,2021-025AG,2026-06-16T03:23:36.292992,13.13470731,.00019964,87.8956,320.4274,96.7285,263.4071,0,U,48072,999,25369,-.92359576E-3,-.325E-5,0
ONEWEB-0175,2021-025AH,2026-06-16T07:46:52.527648,13.13471254,.00015161,87.8963,320.3755,102.5266,257.6033,0,U,48073,999,25337,.51456497E-3,.201E-5,0
ONEWEB-0177,2021-025AJ,2026-06-16T04:24:32.559552,13.13470240,.00020358,87.8959,320.4219,100.3121,259.8237,0,U,48074,999,25354,.63245028E-3,.244E-5,0
ONEWEB-0178,2021-025AK,2026-06-16T03:01:50.945376,13.13468122,.00017165,87.8945,320.4460,104.7707,255.3612,0,U,48075,999,25358,-.15294742E-3,-.43E-6,0
ONEWEB-0108,2021-025AL,2026-06-16T03:52:51.137472,13.13470266,.00019135,87.8962,320.4177,90.2568,269.8781,0,U,48076,999,25351,-.41347913E-3,-.138E-5,0
ONEWEB-0169,2021-025AM,2026-06-16T02:49:28.515360,13.13469596,.00019427,87.8956,320.4344,96.2534,263.8817,0,U,48077,999,25216,.53590445E-3,.208E-5,0
ONEWEB-0176,2021-031A,2026-06-16T00:53:36.329856,13.14503277,.00018778,87.8965,289.9284,103.5281,256.6058,0,U,48210,999,24816,.18864804E-3,.83E-6,0
ONEWEB-0184,2021-031B,2026-06-16T07:33:13.095360,13.14502981,.00015122,87.8970,289.8738,125.0073,235.1199,0,U,48211,999,24817,.38860615E-3,.157E-5,0
ONEWEB-0179,2021-031C,2026-06-16T07:44:49.170912,14.25522720,.02187048,87.8990,287.1804,260.0533,97.5914,0,U,48212,999,24892,.68236563E-4,.224E-5,0
ONEWEB-0180,2021-031D,2026-06-16T07:37:47.424000,13.14503124,.00021787,87.8965,289.8695,111.4156,248.7206,0,U,48213,999,24810,.42927012E-3,.172E-5,0
ONEWEB-0218,2021-031E,2026-06-16T00:51:19.372896,13.14502144,.00018009,87.8974,289.9247,128.2251,231.9041,0,U,48214,999,24822,.92898576E-4,.47E-6,0
ONEWEB-0209,2021-031F,2026-06-16T06:04:09.131808,13.14501646,.00021174,87.8963,289.8986,103.9913,256.1452,0,U,48215,999,24825,.75994526E-3,.295E-5,0
